{"format":"tle-catalog-v1","generatedAt":"2026-07-01T14:19:31.438Z","count":19018,"entries":[{"name":"2021-091B","line1":"1 49316U 21091B   26182.16105575  .00001836  00000+0  91822-4 0  9998","line2":"2 49316  97.4467   9.5229 0013320 359.9505   0.1725 15.18618164261100"},{"name":"2022-019D","line1":"1 51827U 22019D   26182.19015133  .00109397  00000+0  78456-3 0  9990","line2":"2 51827  97.3670 275.4614 0002871 109.0869 251.0706 15.73342539241906"},{"name":"2022-019J","line1":"1 51832U 22019J   26182.22438001  .00002877  00000+0  13466-3 0  9998","line2":"2 51832  97.3428 244.6721 0008881 168.7797 191.3638 15.20499824239931"},{"name":"2022-023F","line1":"1 51951U 22023F   26182.17643274  .00006679  00000+0  27038-3 0  9993","line2":"2 51951  63.4436 225.9227 0131851 341.9641  17.6815 15.17964318239833"},{"name":"BRO-5","line1":"1 51061U 22002CF  26182.15141222  .00037160  00000+0  70702-3 0  9991","line2":"2 51061  97.2993 255.9501 0003968 258.5635 101.5170 15.48133528248415"},{"name":"CUTE","line1":"1 49263U 21088D   26181.73342755  .00346536  52207-4  71055-3 0  9995","line2":"2 49263  97.4142 282.3906 0004991 217.3130 142.7802 15.99337156264716"},{"name":"DEMO8 (TENZING)","line1":"1 48951U 21059CA  26182.07455091  .00025569  00000+0  37495-3 0  9991","line2":"2 48951  97.7011  16.5555 0005382 295.8057  64.2641 15.55518847279465"},{"name":"ETV-A1","line1":"1 51060U 22002CE  26182.17134508  .00013082  00000+0  31945-3 0  9994","line2":"2 51060  97.2872 248.4382 0003409 298.4725  61.6178 15.40966328247997"},{"name":"FARADAY_PHOENIX","line1":"1 48924U 21059AX  26182.08276975  .00201930  00000+0  95420-3 0  9994","line2":"2 48924  97.6775  21.6979 0004564 242.1613 117.9193 15.82481584279850"},{"name":"FENGYUN 3E","line1":"1 49008U 21062A   26182.15414429 -.00000101  00000+0 -26661-4 0  9999","line2":"2 49008  98.7488 185.4063 0002731  63.5131 296.6325 14.19904629258560"},{"name":"GAOFEN-3 02","line1":"1 49495U 21109A   26182.20199895  .00000119  00000+0  49255-4 0  9995","line2":"2 49495  98.4083 190.0994 0001956 336.6961  23.4140 14.42218971242339"},{"name":"GLOBAL-12","line1":"1 49772U 21115BA  26182.15815617  .00043930  00000+0  65989-3 0  9990","line2":"2 49772  53.1963 337.3231 0002594  73.5005 286.6291 15.54465853258072"},{"name":"GLOBAL-13","line1":"1 49773U 21115BB  26182.08075852  .00029446  00000+0  58846-3 0  9992","line2":"2 49773  53.1977 348.5167 0002352 140.4417 219.6764 15.46587915257911"},{"name":"GLOBAL-14","line1":"1 49469U 21106A   26182.18900089  .00028964  00000+0  48321-3 0  9995","line2":"2 49469  42.0018 207.8275 0015191 124.6919 235.5358 15.51237166260308"},{"name":"GLOBAL-16","line1":"1 49950U 21120B   26181.88682572  .00032909  00000+0  55641-3 0  9993","line2":"2 49950  41.9962 331.6115 0013325 335.2990  24.7215 15.50840898256973"},{"name":"GLOBAL-17","line1":"1 49949U 21120A   26182.11197499  .00035144  00000+0  54867-3 0  9990","line2":"2 49949  41.9957 326.2777 0014961 346.5392  13.5052 15.53008943257063"},{"name":"HIBARI","line1":"1 49400U 21102F   26182.11564140  .00014247  00000+0  46187-3 0  9990","line2":"2 49400  97.3227 227.8615 0012751 145.0766 215.1315 15.32017568256329"},{"name":"ION SCV-004","line1":"1 50993U 22002K   26182.09520558  .00006338  00000+0  21681-3 0  9995","line2":"2 50993  97.2826 239.4931 0005823 312.5693  47.5056 15.30587051247421"},{"name":"ISS (NAUKA)","line1":"1 49044U 21066A   26182.12120860  .00006925  00000+0  13146-3 0  9994","line2":"2 49044  51.6311 231.1150 0004254 253.5517 106.5005 15.49499881608612"},{"name":"KOSEN-1","line1":"1 49402U 21102H   26182.10026848  .00009526  00000+0  36067-3 0  9999","line2":"2 49402  97.3174 223.9878 0014637 152.5463 207.6553 15.27030271256142"},{"name":"LUDI TANCE 1-01A (L-SA*)","line1":"1 51284U 22007A   26182.16432043  .00000677  00000+0  78869-4 0  9994","line2":"2 51284  97.8099 189.3855 0001595  90.2218 269.9182 14.88424131240554"},{"name":"LUDI TANCE 1-01B (L-SA*)","line1":"1 51822U 22018A   26182.19794236  .00000698  00000+0  81133-4 0  9993","line2":"2 51822  97.8104 189.4160 0001605  91.5662 268.5739 14.88416102235790"},{"name":"NAPA-2","line1":"1 48963U 21059CN  26180.34166821  .01036663  71381-3  82854-3 0  9993","line2":"2 48963  97.6526  21.4053 0005999 244.2178 115.8489 16.14595969279764"},{"name":"PACE-1","line1":"1 48909U 21059AG  26182.07835052  .00130733  00000+0  62600-3 0  9999","line2":"2 48909  97.6731  21.8122 0002427 213.5484 146.5630 15.82389046279990"},{"name":"SDGSAT 1","line1":"1 49387U 21100A   26182.19457485  .00001154  00000+0  57956-4 0  9993","line2":"2 49387  97.2623 228.6092 0008403 213.7502 146.3199 15.19174761258040"},{"name":"STARLINK-3100","line1":"1 49144U 21082Q   26181.52579302 -.00000176  00000+0 -69692-5 0  9998","line2":"2 49144  70.0001   9.9468 0002959 267.3776  92.7044 14.98329802262889"},{"name":"TEIKYOSAT-4 (OORURI)","line1":"1 49396U 21102B   26182.04108926  .00002041  00000+0  13083-3 0  9990","line2":"2 49396  97.3665 210.9860 0010505 241.4764 118.5408 15.09556372254814"},{"name":"XW-3 (CAS-9)","line1":"1 50466U 21131B   26182.21606716  .00000424  00000+0  14469-3 0  9993","line2":"2 50466  98.4993 274.5296 0005255  64.4735 295.6997 14.41369700237134"},{"name":"YAM-3","line1":"1 48915U 21059AN  26182.02351963  .00014388  00000+0  26889-3 0  9991","line2":"2 48915  97.6981   9.8855 0003834 315.1300  44.9639 15.48856834279134"},{"name":"Z-SAT","line1":"1 49399U 21102E   26182.23572257  .00005401  00000+0  26519-3 0  9997","line2":"2 49399  97.3315 217.1322 0016086 192.4142 167.6698 15.18368030255578"}]}