OBJECT_NAME,OBJECT_ID,EPOCH,MEAN_MOTION,ECCENTRICITY,INCLINATION,RA_OF_ASC_NODE,ARG_OF_PERICENTER,MEAN_ANOMALY,EPHEMERIS_TYPE,CLASSIFICATION_TYPE,NORAD_CAT_ID,ELEMENT_SET_NO,REV_AT_EPOCH,BSTAR,MEAN_MOTION_DOT,MEAN_MOTION_DDOT
PACE-1,2021-059AG,2026-07-01T01:52:49.484928,15.82389046,.0002427,97.6731,21.8122,213.5484,146.5630,0,U,48909,999,27999,.626E-3,.130733E-2,0
YAM-3,2021-059AN,2026-07-01T00:33:52.096032,15.48856834,.0003834,97.6981,9.8855,315.1300,44.9639,0,U,48915,999,27913,.26889E-3,.14388E-3,0
FARADAY_PHOENIX,2021-059AX,2026-07-01T01:59:11.306400,15.82481584,.0004564,97.6775,21.6979,242.1613,117.9193,0,U,48924,999,27985,.9542E-3,.20193E-2,0
DEMO8 (TENZING),2021-059CA,2026-07-01T01:47:21.198624,15.55518847,.0005382,97.7011,16.5555,295.8057,64.2641,0,U,48951,999,27946,.37495E-3,.25569E-3,0
NAPA-2,2021-059CN,2026-06-29T08:12:00.133344,16.14595969,.00059993,97.6526,21.4053,244.2178,115.8489,0,U,48963,999,27976,.82853782E-3,.1036663E-1,.71381441E-3
FENGYUN 3E,2021-062A,2026-07-01T03:41:58.066656,14.19904629,.0002731,98.7488,185.4063,63.5131,296.6325,0,U,49008,999,25856,-.26661E-4,-.101E-5,0
ISS (NAUKA),2021-066A,2026-07-01T02:54:32.423040,15.49499881,.0004254,51.6311,231.1150,253.5517,106.5005,0,U,49044,999,60861,.13146E-3,.6925E-4,0
STARLINK-3100,2021-082Q,2026-06-30T12:37:08.516928,14.98329802,.00029597,70.0001,9.9468,267.3776,92.7044,0,U,49144,999,26288,-.6969245E-5,-.176E-5,0
CUTE,2021-088D,2026-06-30T17:36:08.140320,15.99337156,.00049911,97.4142,282.3906,217.3130,142.7802,0,U,49263,999,26471,.71054746E-3,.346536E-2,.52206628E-4
2021-091B,2021-091B,2026-07-01T03:51:55.216800,15.18618164,.001332,97.4467,9.5229,359.9505,0.1725,0,U,49316,999,26110,.91822E-4,.1836E-4,0
SDGSAT 1,2021-100A,2026-07-01T04:40:11.267040,15.19174761,.0008403,97.2623,228.6092,213.7502,146.3199,0,U,49387,999,25804,.57956E-4,.1154E-4,0
TEIKYOSAT-4 (OORURI),2021-102B,2026-07-01T00:59:10.112064,15.09556372,.0010505,97.3665,210.9860,241.4764,118.5408,0,U,49396,999,25481,.13083E-3,.2041E-4,0
Z-SAT,2021-102E,2026-07-01T05:39:26.430048,15.18368030,.0016086,97.3315,217.1322,192.4142,167.6698,0,U,49399,999,25557,.26519E-3,.5401E-4,0
HIBARI,2021-102F,2026-07-01T02:46:31.416960,15.32017568,.0012751,97.3227,227.8615,145.0766,215.1315,0,U,49400,999,25632,.46187E-3,.14247E-3,0
KOSEN-1,2021-102H,2026-07-01T02:24:23.196672,15.27030271,.0014637,97.3174,223.9878,152.5463,207.6553,0,U,49402,999,25614,.36067E-3,.9526E-4,0
GLOBAL-14,2021-106A,2026-07-01T04:32:09.676896,15.51237166,.0015191,42.0018,207.8275,124.6919,235.5358,0,U,49469,999,26030,.48321E-3,.28964E-3,0
GAOFEN-3 02,2021-109A,2026-07-01T04:50:52.709280,14.42218971,.0001956,98.4083,190.0994,336.6961,23.4140,0,U,49495,999,24233,.49255E-4,.119E-5,0
GLOBAL-12,2021-115BA,2026-07-01T03:47:44.693088,15.54465853,.0002594,53.1963,337.3231,73.5005,286.6291,0,U,49772,999,25807,.65989E-3,.4393E-3,0
GLOBAL-13,2021-115BB,2026-07-01T01:56:17.536128,15.46587915,.0002352,53.1977,348.5167,140.4417,219.6764,0,U,49773,999,25791,.58846E-3,.29446E-3,0
GLOBAL-17,2021-120A,2026-07-01T02:41:14.639136,15.53008943,.0014961,41.9957,326.2777,346.5392,13.5052,0,U,49949,999,25706,.54867E-3,.35144E-3,0
GLOBAL-16,2021-120B,2026-06-30T21:17:01.742208,15.50840898,.0013325,41.9962,331.6115,335.2990,24.7215,0,U,49950,999,25697,.55641E-3,.32909E-3,0
XW-3 (CAS-9),2021-131B,2026-07-01T05:11:08.202624,14.41369700,.0005255,98.4993,274.5296,64.4735,295.6997,0,U,50466,999,23713,.14469E-3,.424E-5,0
ION SCV-004,2022-002K,2026-07-01T02:17:05.762112,15.30587051,.0005823,97.2826,239.4931,312.5693,47.5056,0,U,50993,999,24742,.21681E-3,.6338E-4,0
ETV-A1,2022-002CE,2026-07-01T04:06:44.214912,15.40966328,.0003409,97.2872,248.4382,298.4725,61.6178,0,U,51060,999,24799,.31945E-3,.13082E-3,0
BRO-5,2022-002CF,2026-07-01T03:38:02.015808,15.48133528,.0003968,97.2993,255.9501,258.5635,101.5170,0,U,51061,999,24841,.70702E-3,.3716E-3,0
LUDI TANCE 1-01A (L-SAR 01A),2022-007A,2026-07-01T03:56:37.285152,14.88424131,.0001595,97.8099,189.3855,90.2218,269.9182,0,U,51284,999,24055,.78869E-4,.677E-5,0
LUDI TANCE 1-01B (L-SAR 01B),2022-018A,2026-07-01T04:45:02.219904,14.88416102,.0001605,97.8104,189.4160,91.5662,268.5739,0,U,51822,999,23579,.81133E-4,.698E-5,0
2022-019D,2022-019D,2026-07-01T04:33:49.074912,15.73342539,.0002871,97.3670,275.4614,109.0869,251.0706,0,U,51827,999,24190,.78456E-3,.109397E-2,0
2022-019J,2022-019J,2026-07-01T05:23:06.432864,15.20499824,.0008881,97.3428,244.6721,168.7797,191.3638,0,U,51832,999,23993,.13466E-3,.2877E-4,0
2022-023F,2022-023F,2026-07-01T04:14:03.788736,15.17964318,.0131851,63.4436,225.9227,341.9641,17.6815,0,U,51951,999,23983,.27038E-3,.6679E-4,0
